{"type": "FeatureCollection", "features": [ {"type": "Feature", "properties": {"norad_id": 33492, "name": "GOSAT (IBUKI)", "group": "resource", "lat": -31.68061346672635, "lon": 97.53008455142204, "alt_km": 675.3061524988798, "timestamp": "2025-12-09T20:37:08.938380+00:00", "meta": {"OBJECT_NAME": "GOSAT (IBUKI)", "OBJECT_ID": "2009-002A", "EPOCH": "2025-12-09T14:13:09.766560", "MEAN_MOTION": 14.67546239, "ECCENTRICITY": 9.535e-05, "INCLINATION": 98.0769, "RA_OF_ASC_NODE": 92.2395, "ARG_OF_PERICENTER": 88.1304, "MEAN_ANOMALY": 272.001, "EPHEMERIS_TYPE": 0, "CLASSIFICATION_TYPE": "U", "NORAD_CAT_ID": 33492, "ELEMENT_SET_NO": 999, "REV_AT_EPOCH": 90365, "BSTAR": 0.00030271932, "MEAN_MOTION_DOT": 1.669e-05, "MEAN_MOTION_DDOT": 0}, "tle": {"line1": "1 33492U 09002A   25343.59247415  .00001669  00000+0  30272-3 0  9994", "line2": "2 33492  98.0769  92.2395 0000953  88.1304 272.0010 14.67546239903655"}}, "geometry": {"type": "Point", "coordinates": [97.53008455142204, -31.68061346672635]}}, {"type": "Feature", "properties": {"norad_id": 35681, "name": "DEIMOS-1", "group": "resource", "lat": -30.503295753709555, "lon": 149.17659394725527, "alt_km": 652.1207489223016, "timestamp": "2025-12-09T20:37:08.938391+00:00", "meta": {"OBJECT_NAME": "DEIMOS-1", "OBJECT_ID": "2009-041A", "EPOCH": "2025-12-09T14:14:45.179808", "MEAN_MOTION": 14.74944345, "ECCENTRICITY": 0.00027176, "INCLINATION": 97.7147, "RA_OF_ASC_NODE": 144.343, "ARG_OF_PERICENTER": 84.3673, "MEAN_ANOMALY": 275.7847, "EPHEMERIS_TYPE": 0, "CLASSIFICATION_TYPE": "U", "NORAD_CAT_ID": 35681, "ELEMENT_SET_NO": 999, "REV_AT_EPOCH": 87893, "BSTAR": 0.00014331753, "MEAN_MOTION_DOT": 9.15e-06, "MEAN_MOTION_DDOT": 0}, "tle": {"line1": "1 35681U 09041A   25343.59357847  .00000915  00000+0  14332-3 0  9992", "line2": "2 35681  97.7147 144.3430 0002717  84.3673 275.7847 14.74944345878937"}}, "geometry": {"type": "Point", "coordinates": [149.17659394725527, -30.503295753709555]}}, {"type": "Feature", "properties": {"norad_id": 35682, "name": "DUBAISAT-1", "group": "resource", "lat": -81.68785063304321, "lon": -139.16433682103454, "alt_km": 650.0548832630157, "timestamp": "2025-12-09T20:37:08.938402+00:00", "meta": {"OBJECT_NAME": "DUBAISAT-1", "OBJECT_ID": "2009-041B", "EPOCH": "2025-12-09T14:31:20.716896", "MEAN_MOTION": 14.7459077, "ECCENTRICITY": 0.00097595, "INCLINATION": 97.979, "RA_OF_ASC_NODE": 114.3312, "ARG_OF_PERICENTER": 325.4313, "MEAN_ANOMALY": 34.626, "EPHEMERIS_TYPE": 0, "CLASSIFICATION_TYPE": "U", "NORAD_CAT_ID": 35682, "ELEMENT_SET_NO": 999, "REV_AT_EPOCH": 87715, "BSTAR": 0.00037727159, "MEAN_MOTION_DOT": 2.465e-05, "MEAN_MOTION_DDOT": 0}, "tle": {"line1": "1 35682U 09041B   25343.60510089  .00002465  00000+0  37727-3 0  9999", "line2": "2 35682  97.9790 114.3312 0009759 325.4313  34.6260 14.74590770877156"}}, "geometry": {"type": "Point", "coordinates": [-139.16433682103454, -81.68785063304321]}}, {"type": "Feature", "properties": {"norad_id": 35931, "name": "OCEANSAT-2", "group": "resource", "lat": 37.57231776728592, "lon": 171.13878575044555, "alt_km": 892.1570988303793, "timestamp": "2025-12-09T20:37:08.938417+00:00", "meta": {"OBJECT_NAME": "OCEANSAT-2", "OBJECT_ID": "2009-051A", "EPOCH": "2025-12-09T14:47:52.817856", "MEAN_MOTION": 13.99625376, "ECCENTRICITY": 0.00163336, "INCLINATION": 98.2225, "RA_OF_ASC_NODE": 344.534, "ARG_OF_PERICENTER": 53.2054, "MEAN_ANOMALY": 307.0608, "EPHEMERIS_TYPE": 0, "CLASSIFICATION_TYPE": "U", "NORAD_CAT_ID": 35931, "ELEMENT_SET_NO": 999, "REV_AT_EPOCH": 85281, "BSTAR": -7.4262248e-05, "MEAN_MOTION_DOT": -1.46e-06, "MEAN_MOTION_DDOT": 0}, "tle": {"line1": "1 35931U 09051A   25343.61658354 -.00000146  00000+0 -74262-4 0  9998", "line2": "2 35931  98.2225 344.5340 0016333  53.2054 307.0608 13.99625376852818"}}, "geometry": {"type": "Point", "coordinates": [171.13878575044555, 37.57231776728592]}}, {"type": "Feature", "properties": {"norad_id": 35946, "name": "WORLDVIEW-2 (WV-2)", "group": "resource", "lat": -48.25026159388225, "lon": -134.63475810005914, "alt_km": 776.5625866631572, "timestamp": "2025-12-09T20:37:08.938427+00:00", "meta": {"OBJECT_NAME": "WORLDVIEW-2 (WV-2)", "OBJECT_ID": "2009-055A", "EPOCH": "2025-12-09T14:32:49.402176", "MEAN_MOTION": 14.37650815, "ECCENTRICITY": 0.0005362, "INCLINATION": 98.4763, "RA_OF_ASC_NODE": 54.734, "ARG_OF_PERICENTER": 74.5116, "MEAN_ANOMALY": 285.6663, "EPHEMERIS_TYPE": 0, "CLASSIFICATION_TYPE": "U", "NORAD_CAT_ID": 35946, "ELEMENT_SET_NO": 999, "REV_AT_EPOCH": 84840, "BSTAR": 0.00013065894, "MEAN_MOTION_DOT": 3.49e-06, "MEAN_MOTION_DDOT": 0}, "tle": {"line1": "1 35946U 09055A   25343.60612734  .00000349  00000+0  13066-3 0  9996", "line2": "2 35946  98.4763  54.7340 0005362  74.5116 285.6663 14.37650815848409"}}, "geometry": {"type": "Point", "coordinates": [-134.63475810005914, -48.25026159388225]}}, {"type": "Feature", "properties": {"norad_id": 36036, "name": "SMOS", "group": "resource", "lat": -61.79762478880223, "lon": -27.120495805520775, "alt_km": 767.2614323581683, "timestamp": "2025-12-09T20:37:08.938438+00:00", "meta": {"OBJECT_NAME": "SMOS", "OBJECT_ID": "2009-059A", "EPOCH": "2025-12-09T11:09:16.407072", "MEAN_MOTION": 14.39737201, "ECCENTRICITY": 0.00011103, "INCLINATION": 98.4382, "RA_OF_ASC_NODE": 168.5617, "ARG_OF_PERICENTER": 84.4933, "MEAN_ANOMALY": 275.6382, "EPHEMERIS_TYPE": 0, "CLASSIFICATION_TYPE": "U", "NORAD_CAT_ID": 36036, "ELEMENT_SET_NO": 999, "REV_AT_EPOCH": 84615, "BSTAR": 0.00024021854, "MEAN_MOTION_DOT": 7.09e-06, "MEAN_MOTION_DDOT": 0}, "tle": {"line1": "1 36036U 09059A   25343.46477323  .00000709  00000+0  24022-3 0  9992", "line2": "2 36036  98.4382 168.5617 0001110  84.4933 275.6382 14.39737201846156"}}, "geometry": {"type": "Point", "coordinates": [-27.120495805520775, -61.79762478880223]}}, {"type": "Feature", "properties": {"norad_id": 36110, "name": "YAOGAN-7", "group": "resource", "lat": 34.33657657864753, "lon": -139.9075005018297, "alt_km": 638.1607165442392, "timestamp": "2025-12-09T20:37:08.938449+00:00", "meta": {"OBJECT_NAME": "YAOGAN-7", "OBJECT_ID": "2009-069A", "EPOCH": "2025-12-09T15:35:14.157024", "MEAN_MOTION": 14.7772571, "ECCENTRICITY": 0.00234581, "INCLINATION": 98.0302, "RA_OF_ASC_NODE": 225.4175, "ARG_OF_PERICENTER": 291.8264, "MEAN_ANOMALY": 68.0451, "EPHEMERIS_TYPE": 0, "CLASSIFICATION_TYPE": "U", "NORAD_CAT_ID": 36110, "ELEMENT_SET_NO": 999, "REV_AT_EPOCH": 86163, "BSTAR": 0.00017338681, "MEAN_MOTION_DOT": 1.195e-05, "MEAN_MOTION_DDOT": 0}, "tle": {"line1": "1 36110U 09069A   25343.64946941  .00001195  00000+0  17339-3 0  9996", "line2": "2 36110  98.0302 225.4175 0023458 291.8264  68.0451 14.77725710861634"}}, "geometry": {"type": "Point", "coordinates": [-139.9075005018297, 34.33657657864753]}}, {"type": "Feature", "properties": {"norad_id": 36605, "name": "TANDEM-X", "group": "resource", "lat": -31.294806375418435, "lon": 164.7228224215384, "alt_km": 515.3608336027983, "timestamp": "2025-12-09T20:37:08.938459+00:00", "meta": {"OBJECT_NAME": "TANDEM-X", "OBJECT_ID": "2010-030A", "EPOCH": "2025-12-09T11:47:13.197408", "MEAN_MOTION": 15.19145601, "ECCENTRICITY": 0.0002009, "INCLINATION": 97.445, "RA_OF_ASC_NODE": 348.9195, "ARG_OF_PERICENTER": 85.8365, "MEAN_ANOMALY": 274.3099, "EPHEMERIS_TYPE": 0, "CLASSIFICATION_TYPE": "U", "NORAD_CAT_ID": 36605, "ELEMENT_SET_NO": 999, "REV_AT_EPOCH": 85784, "BSTAR": 0.00012722332, "MEAN_MOTION_DOT": 2.605e-05, "MEAN_MOTION_DDOT": 0}, "tle": {"line1": "1 36605U 10030A   25343.49112497  .00002605  00000+0  12722-3 0  9997", "line2": "2 36605  97.4450 348.9195 0002009  85.8365 274.3099 15.19145601857845"}}, "geometry": {"type": "Point", "coordinates": [164.7228224215384, -31.294806375418435]}}, {"type": "Feature", "properties": {"norad_id": 36795, "name": "CARTOSAT-2B", "group": "resource", "lat": -48.184703996125315, "lon": 41.77981231154274, "alt_km": 646.3487692426534, "timestamp": "2025-12-09T20:37:08.938469+00:00", "meta": {"OBJECT_NAME": "CARTOSAT-2B", "OBJECT_ID": "2010-035A", "EPOCH": "2025-12-09T14:20:37.597632", "MEAN_MOTION": 14.78783332, "ECCENTRICITY": 0.00129458, "INCLINATION": 97.785, "RA_OF_ASC_NODE": 32.7301, "ARG_OF_PERICENTER": 86.3625, "MEAN_ANOMALY": 273.9067, "EPHEMERIS_TYPE": 0, "CLASSIFICATION_TYPE": "U", "NORAD_CAT_ID": 36795, "ELEMENT_SET_NO": 999, "REV_AT_EPOCH": 83183, "BSTAR": 0.00017758756, "MEAN_MOTION_DOT": 1.257e-05, "MEAN_MOTION_DDOT": 0}, "tle": {"line1": "1 36795U 10035A   25343.59765738  .00001257  00000+0  17759-3 0  9992", "line2": "2 36795  97.7850  32.7301 0012945  86.3625 273.9067 14.78783332831838"}}, "geometry": {"type": "Point", "coordinates": [41.77981231154274, -48.184703996125315]}}, {"type": "Feature", "properties": {"norad_id": 36834, "name": "YAOGAN-10", "group": "resource", "lat": -28.780496566646832, "lon": 8.083179108062243, "alt_km": 621.0874413175816, "timestamp": "2025-12-09T20:37:08.938480+00:00", "meta": {"OBJECT_NAME": "YAOGAN-10", "OBJECT_ID": "2010-038A", "EPOCH": "2025-12-09T14:57:20.681856", "MEAN_MOTION": 14.84587805, "ECCENTRICITY": 0.0001406, "INCLINATION": 97.9139, "RA_OF_ASC_NODE": 3.4667, "ARG_OF_PERICENTER": 80.2279, "MEAN_ANOMALY": 70.412, "EPHEMERIS_TYPE": 0, "CLASSIFICATION_TYPE": "U", "NORAD_CAT_ID": 36834, "ELEMENT_SET_NO": 999, "REV_AT_EPOCH": 82907, "BSTAR": 0.00038752872, "MEAN_MOTION_DOT": 3.219e-05, "MEAN_MOTION_DDOT": 0}, "tle": {"line1": "1 36834U 10038A   25343.62315604  .00003219  00000+0  38753-3 0  9993", "line2": "2 36834  97.9139   3.4667 0001406  80.2279  70.4120 14.84587805829079"}}, "geometry": {"type": "Point", "coordinates": [8.083179108062243, -28.780496566646832]}}]}